CCSDS_OMM_VERS = 2.0
CREATION_DATE  = 
ORIGINATOR     = 

OBJECT_NAME    = STARLINK-36465
OBJECT_ID      = 2026-005V
CENTER_NAME    = EARTH
REF_FRAME      = TEME
TIME_SYSTEM    = UTC
MEAN_ELEMENT_THEORY = SGP/SGP4

EPOCH          = 2026-02-09T01:55:04.876320
MEAN_MOTION    = 15.40722029
ECCENTRICITY   = .00007784
INCLINATION    = 42.9999
RA_OF_ASC_NODE = 41.9248
ARG_OF_PERICENTER = 255.9180
MEAN_ANOMALY   = 104.1590

EPHEMERIS_TYPE = 0
CLASSIFICATION_TYPE = U
NORAD_CAT_ID   = 67423
ELEMENT_SET_NO = 999
REV_AT_EPOCH   = 429
BSTAR          = .75057443E-3
MEAN_MOTION_DOT = .31201E-3
MEAN_MOTION_DDOT = 0

CCSDS_OMM_VERS = 2.0
CREATION_DATE  = 
ORIGINATOR     = 

OBJECT_NAME    = STARLINK-36362
OBJECT_ID      = 2026-005W
CENTER_NAME    = EARTH
REF_FRAME      = TEME
TIME_SYSTEM    = UTC
MEAN_ELEMENT_THEORY = SGP/SGP4

EPOCH          = 2026-02-09T01:48:38.160288
MEAN_MOTION    = 15.40705104
ECCENTRICITY   = .00023399
INCLINATION    = 43.0014
RA_OF_ASC_NODE = 41.8914
ARG_OF_PERICENTER = 336.2857
MEAN_ANOMALY   = 23.7892

EPHEMERIS_TYPE = 0
CLASSIFICATION_TYPE = U
NORAD_CAT_ID   = 67424
ELEMENT_SET_NO = 999
REV_AT_EPOCH   = 429
BSTAR          = .11020212E-2
MEAN_MOTION_DOT = .46018E-3
MEAN_MOTION_DDOT = 0

CCSDS_OMM_VERS = 2.0
CREATION_DATE  = 
ORIGINATOR     = 

OBJECT_NAME    = STARLINK-36447
OBJECT_ID      = 2026-005X
CENTER_NAME    = EARTH
REF_FRAME      = TEME
TIME_SYSTEM    = UTC
MEAN_ELEMENT_THEORY = SGP/SGP4

EPOCH          = 2026-02-09T06:00:02.000160
MEAN_MOTION    = 15.40666375
ECCENTRICITY   = .00008716
INCLINATION    = 43.0006
RA_OF_ASC_NODE = 40.8262
ARG_OF_PERICENTER = 261.5171
MEAN_ANOMALY   = 12.9410

EPHEMERIS_TYPE = 0
CLASSIFICATION_TYPE = U
NORAD_CAT_ID   = 67425
ELEMENT_SET_NO = 999
REV_AT_EPOCH   = 561
BSTAR          = .7597529E-3
MEAN_MOTION_DOT = .31529E-3
MEAN_MOTION_DDOT = 0

CCSDS_OMM_VERS = 2.0
CREATION_DATE  = 
ORIGINATOR     = 

OBJECT_NAME    = STARLINK-36146
OBJECT_ID      = 2026-005Y
CENTER_NAME    = EARTH
REF_FRAME      = TEME
TIME_SYSTEM    = UTC
MEAN_ELEMENT_THEORY = SGP/SGP4

EPOCH          = 2026-02-09T06:00:02.000160
MEAN_MOTION    = 15.40676727
ECCENTRICITY   = .00014631
INCLINATION    = 43.0008
RA_OF_ASC_NODE = 40.6439
ARG_OF_PERICENTER = 267.1765
MEAN_ANOMALY   = 81.8947

EPHEMERIS_TYPE = 0
CLASSIFICATION_TYPE = U
NORAD_CAT_ID   = 67426
ELEMENT_SET_NO = 999
REV_AT_EPOCH   = 556
BSTAR          = .71266562E-3
MEAN_MOTION_DOT = .29558E-3
MEAN_MOTION_DDOT = 0

CCSDS_OMM_VERS = 2.0
CREATION_DATE  = 
ORIGINATOR     = 

OBJECT_NAME    = STARLINK-36459
OBJECT_ID      = 2026-005Z
CENTER_NAME    = EARTH
REF_FRAME      = TEME
TIME_SYSTEM    = UTC
MEAN_ELEMENT_THEORY = SGP/SGP4

EPOCH          = 2026-02-07T12:04:10.756128
MEAN_MOTION    = 15.50042225
ECCENTRICITY   = .0001445
INCLINATION    = 43.0003
RA_OF_ASC_NODE = 50.7246
ARG_OF_PERICENTER = 313.7579
MEAN_ANOMALY   = 46.3161

EPHEMERIS_TYPE = 0
CLASSIFICATION_TYPE = U
NORAD_CAT_ID   = 67427
ELEMENT_SET_NO = 999
REV_AT_EPOCH   = 404
BSTAR          = -.42691E-2
MEAN_MOTION_DOT = -.238704E-2
MEAN_MOTION_DDOT = 0

CCSDS_OMM_VERS = 2.0
CREATION_DATE  = 
ORIGINATOR     = 

OBJECT_NAME    = STARLINK-36464
OBJECT_ID      = 2026-005AA
CENTER_NAME    = EARTH
REF_FRAME      = TEME
TIME_SYSTEM    = UTC
MEAN_ELEMENT_THEORY = SGP/SGP4

EPOCH          = 2026-02-09T01:09:14.997600
MEAN_MOTION    = 15.50589951
ECCENTRICITY   = .00012369
INCLINATION    = 43.0006
RA_OF_ASC_NODE = 41.6785
ARG_OF_PERICENTER = 268.9115
MEAN_ANOMALY   = 91.1603

EPHEMERIS_TYPE = 0
CLASSIFICATION_TYPE = U
NORAD_CAT_ID   = 67428
ELEMENT_SET_NO = 999
REV_AT_EPOCH   = 428
BSTAR          = .11583422E-2
MEAN_MOTION_DOT = .68234E-3
MEAN_MOTION_DDOT = 0

CCSDS_OMM_VERS = 2.0
CREATION_DATE  = 
ORIGINATOR     = 

OBJECT_NAME    = STARLINK-36513
OBJECT_ID      = 2026-005AB
CENTER_NAME    = EARTH
REF_FRAME      = TEME
TIME_SYSTEM    = UTC
MEAN_ELEMENT_THEORY = SGP/SGP4

EPOCH          = 2026-02-09T01:08:45.537792
MEAN_MOTION    = 15.50593580
ECCENTRICITY   = .00016627
INCLINATION    = 43.0004
RA_OF_ASC_NODE = 41.6748
ARG_OF_PERICENTER = 286.7464
MEAN_ANOMALY   = 73.3214

EPHEMERIS_TYPE = 0
CLASSIFICATION_TYPE = U
NORAD_CAT_ID   = 67429
ELEMENT_SET_NO = 999
REV_AT_EPOCH   = 428
BSTAR          = .99207342E-3
MEAN_MOTION_DOT = .58324E-3
MEAN_MOTION_DDOT = 0

CCSDS_OMM_VERS = 2.0
CREATION_DATE  = 
ORIGINATOR     = 

OBJECT_NAME    = STARLINK-36515
OBJECT_ID      = 2026-005AC
CENTER_NAME    = EARTH
REF_FRAME      = TEME
TIME_SYSTEM    = UTC
MEAN_ELEMENT_THEORY = SGP/SGP4

EPOCH          = 2026-02-08T01:58:26.629824
MEAN_MOTION    = 15.50271100
ECCENTRICITY   = .00017393
INCLINATION    = 43.0000
RA_OF_ASC_NODE = 47.3312
ARG_OF_PERICENTER = 203.8230
MEAN_ANOMALY   = 156.2550

EPHEMERIS_TYPE = 0
CLASSIFICATION_TYPE = U
NORAD_CAT_ID   = 67430
ELEMENT_SET_NO = 999
REV_AT_EPOCH   = 413
BSTAR          = -.3135777E-2
MEAN_MOTION_DOT = -.178221E-2
MEAN_MOTION_DDOT = 0

CCSDS_OMM_VERS = 2.0
CREATION_DATE  = 
ORIGINATOR     = 

OBJECT_NAME    = STARLINK-36443
OBJECT_ID      = 2026-005AD
CENTER_NAME    = EARTH
REF_FRAME      = TEME
TIME_SYSTEM    = UTC
MEAN_ELEMENT_THEORY = SGP/SGP4

EPOCH          = 2026-02-09T01:08:15.780768
MEAN_MOTION    = 15.50642139
ECCENTRICITY   = .0000839
INCLINATION    = 42.9994
RA_OF_ASC_NODE = 41.6703
ARG_OF_PERICENTER = 238.5783
MEAN_ANOMALY   = 121.4996

EPHEMERIS_TYPE = 0
CLASSIFICATION_TYPE = U
NORAD_CAT_ID   = 67431
ELEMENT_SET_NO = 999
REV_AT_EPOCH   = 429
BSTAR          = .1109771E-2
MEAN_MOTION_DOT = .65456E-3
MEAN_MOTION_DDOT = 0

CCSDS_OMM_VERS = 2.0
CREATION_DATE  = 
ORIGINATOR     = 

OBJECT_NAME    = STARLINK-36460
OBJECT_ID      = 2026-005AE
CENTER_NAME    = EARTH
REF_FRAME      = TEME
TIME_SYSTEM    = UTC
MEAN_ELEMENT_THEORY = SGP/SGP4

EPOCH          = 2026-02-09T01:07:46.158528
MEAN_MOTION    = 15.50579931
ECCENTRICITY   = .0001326
INCLINATION    = 43.0006
RA_OF_ASC_NODE = 41.6691
ARG_OF_PERICENTER = 272.1330
MEAN_ANOMALY   = 87.9379

EPHEMERIS_TYPE = 0
CLASSIFICATION_TYPE = U
NORAD_CAT_ID   = 67432
ELEMENT_SET_NO = 999
REV_AT_EPOCH   = 428
BSTAR          = .14327856E-2
MEAN_MOTION_DOT = .84629E-3
MEAN_MOTION_DDOT = 0

CCSDS_OMM_VERS = 2.0
CREATION_DATE  = 
ORIGINATOR     = 

OBJECT_NAME    = YAOGAN-50 01
OBJECT_ID      = 2026-006A
CENTER_NAME    = EARTH
REF_FRAME      = TEME
TIME_SYSTEM    = UTC
MEAN_ELEMENT_THEORY = SGP/SGP4

EPOCH          = 2026-02-09T06:02:24.434016
MEAN_MOTION    = 13.83242286
ECCENTRICITY   = .00007478
INCLINATION    = 142.0322
RA_OF_ASC_NODE = 317.5196
ARG_OF_PERICENTER = 262.1427
MEAN_ANOMALY   = 97.9207

EPHEMERIS_TYPE = 0
CLASSIFICATION_TYPE = U
NORAD_CAT_ID   = 67433
ELEMENT_SET_NO = 999
REV_AT_EPOCH   = 371
BSTAR          = .15105301E-3
MEAN_MOTION_DOT = .355E-5
MEAN_MOTION_DDOT = 0

CCSDS_OMM_VERS = 2.0
CREATION_DATE  = 
ORIGINATOR     = 

OBJECT_NAME    = CZ-6A R/B
OBJECT_ID      = 2026-006B
CENTER_NAME    = EARTH
REF_FRAME      = TEME
TIME_SYSTEM    = UTC
MEAN_ELEMENT_THEORY = SGP/SGP4

EPOCH          = 2026-02-08T16:00:34.743456
MEAN_MOTION    = 14.62314184
ECCENTRICITY   = .02035934
INCLINATION    = 142.0437
RA_OF_ASC_NODE = 331.0451
ARG_OF_PERICENTER = 272.9549
MEAN_ANOMALY   = 84.7918

EPHEMERIS_TYPE = 0
CLASSIFICATION_TYPE = U
NORAD_CAT_ID   = 67434
ELEMENT_SET_NO = 999
REV_AT_EPOCH   = 382
BSTAR          = .23227641E-3
MEAN_MOTION_DOT = .1931E-4
MEAN_MOTION_DDOT = 0

