STARLINK-36465          
1 67423U 26005V   26040.07991755  .00031201  00000+0  75057-3 0  9993
2 67423  42.9999  41.9248 0000778 255.9180 104.1590 15.40722029  4293
STARLINK-36362          
1 67424U 26005W   26040.07544167  .00046018  00000+0  11020-2 0  9996
2 67424  43.0014  41.8914 0002339 336.2857  23.7892 15.40705104  4298
STARLINK-36447          
1 67425U 26005X   26040.25002315  .00031529  00000+0  75975-3 0  9992
2 67425  43.0006  40.8262 0000871 261.5171  12.9410 15.40666375  5612
STARLINK-36146          
1 67426U 26005Y   26040.25002315  .00029558  00000+0  71267-3 0  9992
2 67426  43.0008  40.6439 0001463 267.1765  81.8947 15.40676727  5564
STARLINK-36459          
1 67427U 26005Z   26038.50290227 -.00238704  00000+0 -42691-2 0  9994
2 67427  43.0003  50.7246 0001445 313.7579  46.3161 15.50042225  4046
STARLINK-36464          
1 67428U 26005AA  26040.04809025  .00068234  00000+0  11583-2 0  9992
2 67428  43.0006  41.6785 0001236 268.9115  91.1603 15.50589951  4289
STARLINK-36513          
1 67429U 26005AB  26040.04774928  .00058324  00000+0  99207-3 0  9995
2 67429  43.0004  41.6748 0001662 286.7464  73.3214 15.50593580  4288
STARLINK-36515          
1 67430U 26005AC  26039.08225266 -.00178221  00000+0 -31358-2 0  9998
2 67430  43.0000  47.3312 0001739 203.8230 156.2550 15.50271100  4131
STARLINK-36443          
1 67431U 26005AD  26040.04740487  .00065456  00000+0  11098-2 0  9996
2 67431  42.9994  41.6703 0000839 238.5783 121.4996 15.50642139  4290
STARLINK-36460          
1 67432U 26005AE  26040.04706202  .00084629  00000+0  14328-2 0  9996
2 67432  43.0006  41.6691 0001326 272.1330  87.9379 15.50579931  4286
YAOGAN-50 01            
1 67433U 26006A   26040.25167169  .00000355  00000+0  15105-3 0  9993
2 67433 142.0322 317.5196 0000747 262.1427  97.9207 13.83242286  3717
CZ-6A R/B               
1 67434U 26006B   26039.66706879  .00001931  00000+0  23228-3 0  9990
2 67434 142.0437 331.0451 0203593 272.9549  84.7918 14.62314184  3828
